{
  "norad_id": 52303,
  "name": "STARLINK-3742",
  "history": [
    {
      "epoch": "2026-03-28T22:29:33.234144Z",
      "apogee_km": 540.7940564240498,
      "perigee_km": 538.6756657027545,
      "latitude_deg": 1.540207087347285e-05,
      "longitude_deg": -151.02593691197478,
      "height_km": 540.8201878536714,
      "semi_major_axis_km": 6917.871861063401,
      "eccentricity": 0.00015311,
      "inclination_deg": 53.2184,
      "raan_deg": 12.713,
      "arg_perigee_deg": 100.3185,
      "mean_anomaly_deg": 259.798,
      "mean_motion_rev_day": 15.0884279
    },
    {
      "epoch": "2026-03-29T01:40:19.615008Z",
      "apogee_km": 540.9175781942313,
      "perigee_km": 538.5668828317039,
      "latitude_deg": -3.30032562221711e-05,
      "longitude_deg": 160.5572940211605,
      "height_km": 540.7167866907854,
      "semi_major_axis_km": 6917.879230512967,
      "eccentricity": 0.0001699,
      "inclination_deg": 53.2181,
      "raan_deg": 12.1201,
      "arg_perigee_deg": 93.8659,
      "mean_anomaly_deg": 266.2527,
      "mean_motion_rev_day": 15.08840379
    }
  ]
}